STARLINK-37647          
1 69207U 26114AB  26193.90069547  .00013170  00000+0  40010-3 0  9998
2 69207  53.1608  78.8821 0001340  98.7731 261.3423 15.34409856  8763
STARLINK-37562          
1 69208U 26114AC  26193.95951838  .00017725  00000+0  53422-3 0  9998
2 69208  53.1602  78.5394 0000775 106.5985 253.5103 15.34415307  8788
STARLINK-37682          
1 69209U 26114AD  26193.89227766  .00015831  00000+0  47849-3 0  9990
2 69209  53.1604  78.8165 0001479 102.8838 257.2330 15.34412189  8764
STARLINK-37402          
1 69210U 26114AE  26193.95531434  .00012669  00000+0  38538-3 0  9990
2 69210  53.1600  78.5045 0001262  70.1107 290.0032 15.34404811  8770
STARLINK-37613          
1 69211U 26115A   26193.46991784  .00014638  00000+0  45478-3 0  9995
2 69211  97.2859 210.6333 0002571  50.9737 309.1734 15.33448019  8569
STARLINK-37713          
1 69212U 26115B   26193.98651534  .00017690  00000+0  54868-3 0  9993
2 69212  97.2842 211.0067 0002012 116.6125 243.5324 15.33461141  8637
STARLINK-37716          
1 69213U 26115C   26193.98923725  .00013802  00000+0  42888-3 0  9998
2 69213  97.2810 211.0098 0002182  90.4206 269.7287 15.33457099  8639
STARLINK-37620          
1 69214U 26115D   26193.58954664  .00006414  00000+0  20082-3 0  9994
2 69214  97.2846 210.6262 0001493 102.9862 257.1547 15.33445074  8571
STARLINK-37700          
1 69215U 26115E   26193.97835984  .00015676  00000+0  48672-3 0  9996
2 69215  97.2838 211.0165 0001857 132.8751 227.2648 15.33453858  8639
STARLINK-37766          
1 69216U 26115F   26193.97563919  .00014754  00000+0  45823-3 0  9994
2 69216  97.2842 211.0256 0001880  91.6821 268.4637 15.33458154  8631
STARLINK-37763          
1 69217U 26115G   26193.58139109  .00005425  00000+0  17017-3 0  9991
2 69217  97.2867 210.6420 0002594  81.7752 278.3785 15.33455900  8576
STARLINK-37724          
1 69218U 26115H   26193.97020387  .00015850  00000+0  49205-3 0  9999
2 69218  97.2840 211.0328 0002149  91.0855 269.0634 15.33456478  8632
STARLINK-37758          
1 69219U 26115J   26193.57322994  .00011838  00000+0  36834-3 0  9991
2 69219  97.2809 210.6521 0001116 123.0949 237.0401 15.33453718  8575
STARLINK-37201          
1 69220U 26115K   26193.96750682  .00019489  00000+0  60418-3 0  9990
2 69220  97.2848 211.0371 0002064 105.2365 254.9106 15.33457955  8639
STARLINK-37728          
1 69221U 26115L   26194.02730207  .00014241  00000+0  44246-3 0  9992
2 69221  97.2840 211.1072 0002092 102.1486 257.9991 15.33454625  8649
STARLINK-37760          
1 69222U 26115M   26193.95932286  .00012548  00000+0  39020-3 0  9997
2 69222  97.2858 211.0467 0001064 109.5950 250.5408 15.33458316  8633
STARLINK-37759          
1 69223U 26115N   26193.95660887  .00012520  00000+0  38931-3 0  9993
2 69223  97.2840 211.0491 0001564  92.3830 267.7591 15.33458791  8633
STARLINK-37725          
1 69224U 26115P   26194.01914350  .00015721  00000+0  48818-3 0  9990
2 69224  97.2834 211.1168 0001188  82.7104 277.4273 15.33451154  8651
STARLINK-37770          
1 69225U 26115Q   26193.95117100  .00012751  00000+0  39667-3 0  9993
2 69225  97.2849 211.0581 0001165 126.9640 233.1709 15.33440799  8631
STARLINK-37736          
1 69226U 26115R   26193.94843510  .00009105  00000+0  28379-3 0  9991
2 69226  97.2823 211.0600 0001681  88.7847 271.3589 15.33469317  8630
STARLINK-37737          
1 69227U 26115S   26193.94301161  .00014467  00000+0  44944-3 0  9996
2 69227  97.2839 211.0690 0001295  91.4200 268.7191 15.33455427  8638
STARLINK-37618          
1 69228U 26115T   26194.00554884  .00023691  00000+0  73338-3 0  9995
2 69228  97.2832 211.1369 0002693 108.9376 251.2159 15.33463351  8644
STARLINK-37679          
1 69229U 26115U   26194.01098554  .00014245  00000+0  44263-3 0  9994
2 69229  97.2837 211.1265 0001227  88.4724 271.6660 15.33452816  8643
STARLINK-37746          
1 69230U 26115V   26194.00283125  .00022654  00000+0  70155-3 0  9997
2 69230  97.2842 211.1419 0002312 105.4315 254.7183 15.33460117  8649
STARLINK-37557          
1 69231U 26115W   26193.93213315  .00014040  00000+0  43619-3 0  9998
2 69231  97.2856 211.0816 0001364 121.6410 238.4966 15.33460323  8633
STARLINK-37745          
1 69232U 26115X   26193.99467014  .00013780  00000+0  42820-3 0  9995
2 69232  97.2829 211.1532 0001417 117.6643 242.4743 15.33458918  8648
STARLINK-37739          
1 69233U 26115Y   26193.93485340  .00013395  00000+0  41633-3 0  9995
2 69233  97.2848 211.0772 0001228  99.4099 260.7283 15.33457215  8637
STARLINK-37755          
1 69234U 26115Z   26194.12137272 -.00541964  00000+0 -16832-1 0  9997
2 69234  97.2837 212.0436 0001551 101.2687 258.8732 15.35584172  8719
STARLINK-37665          
1 69238U 26117A   26193.92231743  .00026169  00000+0  80357-3 0  9996
2 69238  53.1639 119.1081 0002465  82.6904 277.4378 15.33574107  6981
STARLINK-37558          
1 69239U 26117B   26193.95845786  .00016208  00000+0  50245-3 0  9994
2 69239  53.1596 118.6217 0001258  97.1419 262.9726 15.33588728  6991
