OBJECT_NAME,OBJECT_ID,EPOCH,MEAN_MOTION,ECCENTRICITY,INCLINATION,RA_OF_ASC_NODE,ARG_OF_PERICENTER,MEAN_ANOMALY,EPHEMERIS_TYPE,CLASSIFICATION_TYPE,NORAD_CAT_ID,ELEMENT_SET_NO,REV_AT_EPOCH,BSTAR,MEAN_MOTION_DOT,MEAN_MOTION_DDOT
STARLINK-37647,2026-114AB,2026-07-12T21:37:00.088608,15.34409856,.000134,53.1608,78.8821,98.7731,261.3423,0,U,69207,999,876,.4001E-3,.1317E-3,0
STARLINK-37562,2026-114AC,2026-07-12T23:01:42.388032,15.34415307,.0000775,53.1602,78.5394,106.5985,253.5103,0,U,69208,999,878,.53422E-3,.17725E-3,0
STARLINK-37682,2026-114AD,2026-07-12T21:24:52.789824,15.34412189,.0001479,53.1604,78.8165,102.8838,257.2330,0,U,69209,999,876,.47849E-3,.15831E-3,0
STARLINK-37402,2026-114AE,2026-07-12T22:55:39.158976,15.34404811,.0001262,53.1600,78.5045,70.1107,290.0032,0,U,69210,999,877,.38538E-3,.12669E-3,0
STARLINK-37613,2026-115A,2026-07-12T11:16:40.901376,15.33448019,.00025712,97.2859,210.6333,50.9737,309.1734,0,U,69211,999,856,.45477953E-3,.14638E-3,0
STARLINK-37713,2026-115B,2026-07-12T23:40:34.925376,15.33461141,.0002012,97.2842,211.0067,116.6125,243.5324,0,U,69212,999,863,.54868E-3,.1769E-3,0
STARLINK-37716,2026-115C,2026-07-12T23:44:30.098400,15.33457099,.0002182,97.2810,211.0098,90.4206,269.7287,0,U,69213,999,863,.42888E-3,.13802E-3,0
STARLINK-37620,2026-115D,2026-07-12T14:08:56.829696,15.33445074,.0001493,97.2846,210.6262,102.9862,257.1547,0,U,69214,999,857,.20082E-3,.6414E-4,0
STARLINK-37700,2026-115E,2026-07-12T23:28:50.290176,15.33453858,.0001857,97.2838,211.0165,132.8751,227.2648,0,U,69215,999,863,.48672E-3,.15676E-3,0
STARLINK-37766,2026-115F,2026-07-12T23:24:55.226016,15.33458154,.000188,97.2842,211.0256,91.6821,268.4637,0,U,69216,999,863,.45823E-3,.14754E-3,0
STARLINK-37763,2026-115G,2026-07-12T13:57:12.190176,15.33455900,.0002594,97.2867,210.6420,81.7752,278.3785,0,U,69217,999,857,.17017E-3,.5425E-4,0
STARLINK-37724,2026-115H,2026-07-12T23:17:05.614368,15.33456478,.0002149,97.2840,211.0328,91.0855,269.0634,0,U,69218,999,863,.49205E-3,.1585E-3,0
STARLINK-37758,2026-115J,2026-07-12T13:45:27.066816,15.33453718,.0001116,97.2809,210.6521,123.0949,237.0401,0,U,69219,999,857,.36834E-3,.11838E-3,0
STARLINK-37201,2026-115K,2026-07-12T23:13:12.589248,15.33457955,.0002064,97.2848,211.0371,105.2365,254.9106,0,U,69220,999,863,.60418E-3,.19489E-3,0
STARLINK-37728,2026-115L,2026-07-13T00:39:18.898848,15.33454625,.0002092,97.2840,211.1072,102.1486,257.9991,0,U,69221,999,864,.44246E-3,.14241E-3,0
STARLINK-37760,2026-115M,2026-07-12T23:01:25.495104,15.33458316,.0001064,97.2858,211.0467,109.5950,250.5408,0,U,69222,999,863,.3902E-3,.12548E-3,0
STARLINK-37759,2026-115N,2026-07-12T22:57:31.006368,15.33458791,.0001564,97.2840,211.0491,92.3830,267.7591,0,U,69223,999,863,.38931E-3,.1252E-3,0
STARLINK-37725,2026-115P,2026-07-13T00:27:33.998400,15.33451154,.0001188,97.2834,211.1168,82.7104,277.4273,0,U,69224,999,865,.48818E-3,.15721E-3,0
STARLINK-37770,2026-115Q,2026-07-12T22:49:41.174400,15.33440799,.0001165,97.2849,211.0581,126.9640,233.1709,0,U,69225,999,863,.39667E-3,.12751E-3,0
STARLINK-37736,2026-115R,2026-07-12T22:45:44.792640,15.33469317,.0001681,97.2823,211.0600,88.7847,271.3589,0,U,69226,999,863,.28379E-3,.9105E-4,0
STARLINK-37737,2026-115S,2026-07-12T22:37:56.203104,15.33455427,.0001295,97.2839,211.0690,91.4200,268.7191,0,U,69227,999,863,.44944E-3,.14467E-3,0
STARLINK-37618,2026-115T,2026-07-13T00:07:59.419776,15.33463351,.0002693,97.2832,211.1369,108.9376,251.2159,0,U,69228,999,864,.73338E-3,.23691E-3,0
STARLINK-37679,2026-115U,2026-07-13T00:15:49.150656,15.33452816,.0001227,97.2837,211.1265,88.4724,271.6660,0,U,69229,999,864,.44263E-3,.14245E-3,0
STARLINK-37746,2026-115V,2026-07-13T00:04:04.620000,15.33460117,.0002312,97.2842,211.1419,105.4315,254.7183,0,U,69230,999,864,.70155E-3,.22654E-3,0
STARLINK-37557,2026-115W,2026-07-12T22:22:16.304160,15.33460323,.0001364,97.2856,211.0816,121.6410,238.4966,0,U,69231,999,863,.43619E-3,.1404E-3,0
STARLINK-37745,2026-115X,2026-07-12T23:52:19.500096,15.33458918,.0001417,97.2829,211.1532,117.6643,242.4743,0,U,69232,999,864,.4282E-3,.1378E-3,0
STARLINK-37739,2026-115Y,2026-07-12T22:26:11.333760,15.33457215,.0001228,97.2848,211.0772,99.4099,260.7283,0,U,69233,999,863,.41633E-3,.13395E-3,0
STARLINK-37755,2026-115Z,2026-07-13T02:54:46.603008,15.35584172,.0001551,97.2837,212.0436,101.2687,258.8732,0,U,69234,999,871,-.16832E-1,-.541964E-2,0
STARLINK-37665,2026-117A,2026-07-12T22:08:08.225952,15.33574107,.0002465,53.1639,119.1081,82.6904,277.4378,0,U,69238,999,698,.80357E-3,.26169E-3,0
STARLINK-37558,2026-117B,2026-07-12T23:00:10.759104,15.33588728,.0001258,53.1596,118.6217,97.1419,262.9726,0,U,69239,999,699,.50245E-3,.16208E-3,0
